STARLINK-1641           
1 46174U 20057BK  26068.90939695  .00039511  00000+0  68917-3 0  9990
2 46174  53.0502 283.9292 0000412 183.3564 176.7442 15.50347057306547
LEMUR-2-JOHNNYTRUONG    
1 59146U 24043BA  26068.97450647  .00037131  00000+0  59179-3 0  9990
2 59146  97.5264 215.1548 0005403 183.0981 177.0239 15.53145437112605
