[{"OBJECT_NAME":"STARLINK-1641","OBJECT_ID":"2020-057BK","EPOCH":"2026-03-09T21:49:31.896480","MEAN_MOTION":15.50347057,"ECCENTRICITY":4.118e-5,"INCLINATION":53.0502,"RA_OF_ASC_NODE":283.9292,"ARG_OF_PERICENTER":183.3564,"MEAN_ANOMALY":176.7442,"EPHEMERIS_TYPE":0,"CLASSIFICATION_TYPE":"U","NORAD_CAT_ID":46174,"ELEMENT_SET_NO":999,"REV_AT_EPOCH":30654,"BSTAR":0.00068917164,"MEAN_MOTION_DOT":0.00039511,"MEAN_MOTION_DDOT":0},{"OBJECT_NAME":"LEMUR-2-JOHNNYTRUONG","OBJECT_ID":"2024-043BA","EPOCH":"2026-03-09T23:23:17.359008","MEAN_MOTION":15.53145437,"ECCENTRICITY":0.00054027,"INCLINATION":97.5264,"RA_OF_ASC_NODE":215.1548,"ARG_OF_PERICENTER":183.0981,"MEAN_ANOMALY":177.0239,"EPHEMERIS_TYPE":0,"CLASSIFICATION_TYPE":"U","NORAD_CAT_ID":59146,"ELEMENT_SET_NO":999,"REV_AT_EPOCH":11260,"BSTAR":0.00059178591,"MEAN_MOTION_DOT":0.00037131,"MEAN_MOTION_DDOT":0}]
